{"fetched_at":"2026-07-15T17:47:16.434Z","source":"https://celestrak.org/NORAD/elements/gp.php?NAME=ICEYE&FORMAT=JSON","constellation":"iceye","records":[{"OBJECT_NAME":"ICEYE-X72","OBJECT_ID":"2026-067CS","EPOCH":"2026-07-15T04:00:03.000096","CLASSIFICATION_TYPE":"U","MEAN_MOTION":14.96037182,"ECCENTRICITY":0.0000601,"INCLINATION":97.7642,"RA_OF_ASC_NODE":154.1388,"ARG_OF_PERICENTER":171.3371,"MEAN_ANOMALY":172.2006,"EPHEMERIS_TYPE":0,"NORAD_CAT_ID":68504,"ELEMENT_SET_NO":999,"REV_AT_EPOCH":550,"BSTAR":0.0054944,"MEAN_MOTION_DOT":0.00062145,"MEAN_MOTION_DDOT":0},{"OBJECT_NAME":"ICEYE-X78","OBJECT_ID":"2026-100R","EPOCH":"2026-07-15T04:19:04.744128","CLASSIFICATION_TYPE":"U","MEAN_MOTION":14.91811972,"ECCENTRICITY":0.0003588,"INCLINATION":97.7334,"RA_OF_ASC_NODE":93.1127,"ARG_OF_PERICENTER":55.3127,"MEAN_ANOMALY":304.843,"EPHEMERIS_TYPE":0,"NORAD_CAT_ID":68995,"ELEMENT_SET_NO":999,"REV_AT_EPOCH":1087,"BSTAR":0.000049904,"MEAN_MOTION_DOT":0.00000448,"MEAN_MOTION_DDOT":0},{"OBJECT_NAME":"ICEYE-X82","OBJECT_ID":"2026-100S","EPOCH":"2026-07-14T15:57:47.438496","CLASSIFICATION_TYPE":"U","MEAN_MOTION":14.91422922,"ECCENTRICITY":0.00057267,"INCLINATION":97.7329,"RA_OF_ASC_NODE":92.5524,"ARG_OF_PERICENTER":65.1986,"MEAN_ANOMALY":294.9828,"EPHEMERIS_TYPE":0,"NORAD_CAT_ID":68996,"ELEMENT_SET_NO":999,"REV_AT_EPOCH":1079,"BSTAR":0.00014538725,"MEAN_MOTION_DOT":0.00001397,"MEAN_MOTION_DDOT":0}]}
