ICEYE-X72               
1 68504U 26067CS  26196.16670139  .00062145  00000+0  54944-2 0  9996
2 68504  97.7642 154.1388 0000601 171.3371 172.2006 14.96037182  5509
ICEYE-X78               
1 68995U 26100R   26196.17991602  .00000448  00000+0  49904-4 0  9990
2 68995  97.7334  93.1127 0003588  55.3127 304.8430 14.91811972 10873
ICEYE-X82               
1 68996U 26100S   26195.66513239  .00001397  00000+0  14539-3 0  9999
2 68996  97.7329  92.5524 0005726  65.1986 294.9828 14.91422922 10794
